NORAD_CAT_ID,OBJECT_NAME,OBJECT_TYPE,EPOCH,MEAN_MOTION,ECCENTRICITY,INCLINATION,RA_OF_ASC_NODE,ARG_OF_PERICENTER,MEAN_ANOMALY,BSTAR,MEAN_MOTION_DOT,MEAN_MOTION_DDOT,TLE_LINE0,TLE_LINE1,TLE_LINE2,SEMIMAJOR_AXIS,PERIOD,APOGEE,PERIGEE,DECAYED
56470.0,STARLINK-5523,PAYLOAD,2024-06-20 16:00:19,14.9833508,0.0003308,70.0009,265.5506,268.8346,91.2434,0.00010109,1.114e-05,0.0,0 STARLINK-5523,1 56470U 23064Y   24172.66689105  .00001114  00000-0  10109-3 0  9995,2 56470  70.0009 265.5506 0003308 268.8346  91.2434 14.98335080 62170,6950.177,96.107,574.341,569.743,0.0
56470.0,STARLINK-5523,PAYLOAD,2024-06-21 12:50:04,14.98330604,0.0003346,69.999,263.362,267.7953,92.2823,0.0001036,1.143e-05,0.0,0 STARLINK-5523,1 56470U 23064Y   24173.53477405  .00001143  00000-0  10360-3 0  9991,2 56470  69.9990 263.3620 0003346 267.7953  92.2823 14.98330604 62308,6950.191,96.107,574.382,569.73,0.0
56470.0,STARLINK-5523,PAYLOAD,2024-06-21 14:26:12,14.98332223,0.0003333,69.999,263.1937,267.7239,92.3539,0.00011986,1.337e-05,0.0,0 STARLINK-5523,1 56470U 23064Y   24173.60153264  .00001337  00000-0  11986-3 0  9993,2 56470  69.9990 263.1937 0003333 267.7239  92.3539 14.98332223 61954,6950.186,96.107,574.368,569.735,0.0
56470.0,STARLINK-5523,PAYLOAD,2024-06-21 16:02:20,14.98333326,0.0003332,69.999,263.0254,267.7507,92.327,0.00013068,1.467e-05,0.0,0 STARLINK-5523,1 56470U 23064Y   24173.66829173  .00001467  00000-0  13068-3 0  9995,2 56470  69.9990 263.0254 0003332 267.7507  92.3270 14.98333326 61960,6950.183,96.107,574.363,569.732,0.0
56470.0,STARLINK-5523,PAYLOAD,2024-06-22 12:52:05,14.98330224,0.0003211,69.9995,260.8368,268.3396,91.7395,4.5355e-05,4.48e-06,0.0,0 STARLINK-5523,1 56470U 23064Y   24174.53617503  .00000448  00000-0  45355-4 0  9997,2 56470  69.9995 260.8368 0003211 268.3396  91.7395 14.98330224 62455,6950.192,96.107,574.289,569.825,0.0
56470.0,STARLINK-5523,PAYLOAD,2024-06-22 14:28:13,14.98331393,0.0003203,69.9995,260.6685,268.379,91.7002,5.6031e-05,5.76e-06,0.0,0 STARLINK-5523,1 56470U 23064Y   24174.60293392  .00000576  00000-0  56031-4 0  9996,2 56470  69.9995 260.6685 0003203 268.3790  91.7002 14.98331393 62109,6950.189,96.107,574.28,569.827,0.0
56470.0,STARLINK-5523,PAYLOAD,2024-06-22 16:04:21,14.98332245,0.0003205,69.9995,260.5002,268.452,91.6272,6.3065e-05,6.6e-06,0.0,0 STARLINK-5523,1 56470U 23064Y   24174.66969313  .00000660  00000-0  63065-4 0  9994,2 56470  69.9995 260.5002 0003205 268.4520  91.6272 14.98332245 62111,6950.186,96.107,574.278,569.823,0.0
56470.0,STARLINK-5523,PAYLOAD,2024-06-23 12:54:06,14.98329585,0.0003105,69.9999,258.313,267.0566,93.0238,7.5163e-05,8.04e-06,0.0,0 STARLINK-5523,1 56470U 23064Y   24175.53757452  .00000804  00000-0  75163-4 0  9992,2 56470  69.9999 258.3130 0003105 267.0566  93.0238 14.98329585 62601,6950.194,96.107,574.217,569.901,0.0
56470.0,STARLINK-5523,PAYLOAD,2024-06-23 14:30:14,14.98330023,0.0003101,69.9998,258.1446,267.1208,92.9596,7.8045e-05,8.38e-06,0.0,0 STARLINK-5523,1 56470U 23064Y   24175.60433420  .00000838  00000-0  78045-4 0  9995,2 56470  69.9998 258.1446 0003101 267.1208  92.9596 14.98330023 62253,6950.193,96.107,574.213,569.903,0.0
56470.0,STARLINK-5523,PAYLOAD,2024-06-24 12:56:06,14.98337575,0.0003203,69.9996,255.7879,267.5464,92.5328,0.00014841,1.679e-05,0.0,0 STARLINK-5523,1 56470U 23064Y   24176.53896608  .00001679  00000-0  14841-3 0  9996,2 56470  69.9996 255.7879 0003203 267.5464  92.5328 14.98337575 62758,6950.169,96.107,574.261,569.808,0.0
56470.0,STARLINK-5523,PAYLOAD,2024-06-24 14:32:14,14.98338425,0.0003183,69.9997,255.62,266.0656,94.0139,0.00016061,1.824e-05,0.0,0 STARLINK-5523,1 56470U 23064Y   24176.60572506  .00001824  00000-0  16061-3 0  9990,2 56470  69.9997 255.6200 0003183 266.0656  94.0139 14.98338425 62404,6950.167,96.106,574.244,569.82,0.0
56470.0,STARLINK-5523,PAYLOAD,2024-06-25 12:58:08,14.98328422,0.0003132,69.9998,253.2638,263.0317,97.0486,2.9892e-05,2.64e-06,0.0,0 STARLINK-5523,1 56470U 23064Y   24177.54037265  .00000264  00000-0  29892-4 0  9996,2 56470  69.9998 253.2638 0003132 263.0317  97.0486 14.98328422 62908,6950.198,96.107,574.24,569.886,0.0
56470.0,STARLINK-5523,PAYLOAD,2024-06-25 14:34:16,14.98328768,0.000313,69.9998,253.0955,263.0553,97.025,3.1265e-05,2.8e-06,0.0,0 STARLINK-5523,1 56470U 23064Y   24177.60713234  .00000280  00000-0  31265-4 0  9995,2 56470  69.9998 253.0955 0003130 263.0553  97.0250 14.98328768 62551,6950.197,96.107,574.237,569.886,0.0
56470.0,STARLINK-5523,PAYLOAD,2024-06-26 11:24:00,14.98332832,0.0003103,69.9999,250.9085,257.5865,102.4947,-3.5341e-05,-5.15e-06,0.0,0 STARLINK-5523,1 56470U 23064Y   24178.47500965 -.00000515  00000-0 -35341-4 0  9998,2 56470  69.9999 250.9085 0003103 257.5865 102.4947 14.98332832 62681,6950.184,96.107,574.206,569.892,0.0
56470.0,STARLINK-5523,PAYLOAD,2024-06-27 05:01:29,14.98331184,0.0003212,69.9995,249.0567,259.6688,100.4109,0.00010597,1.172e-05,0.0,0 STARLINK-5523,1 56470U 23064Y   24179.20936680  .00001172  00000-0  10597-3 0  9990,2 56470  69.9995 249.0567 0003212 259.6688 100.4109 14.98331184 63158,6950.189,96.107,574.287,569.822,0.0
56470.0,STARLINK-5523,PAYLOAD,2024-06-27 14:38:17,14.98332883,0.0003338,69.9991,248.0449,269.0235,91.0541,0.00011936,1.332e-05,0.0,0 STARLINK-5523,1 56470U 23064Y   24179.60992625  .00001332  00000-0  11936-3 0  9991,2 56470  69.9991 248.0449 0003338 269.0235  91.0541 14.98332883 62852,6950.184,96.107,574.369,569.729,0.0
56470.0,STARLINK-5523,PAYLOAD,2024-06-28 05:03:28,14.98352388,0.0003589,69.9985,246.5302,268.4347,91.6401,0.00037855,4.429e-05,0.0,0 STARLINK-5523,1 56470U 23064Y   24180.21074372  .00004429  00000-0  37855-3 0  9998,2 56470  69.9985 246.5302 0003589 268.4347  91.6401 14.98352388 63305,6950.124,96.106,574.483,569.494,0.0
56470.0,STARLINK-5523,PAYLOAD,2024-06-28 13:04:09,14.98336309,0.0003747,69.9985,245.6854,276.5406,83.5327,7.3756e-05,7.87e-06,0.0,0 STARLINK-5523,1 56470U 23064Y   24180.54455929  .00000787  00000-0  73756-4 0  9999,2 56470  69.9985 245.6854 0003747 276.5406  83.5327 14.98336309 63356,6950.173,96.107,574.643,569.434,0.0
56470.0,STARLINK-5523,PAYLOAD,2024-06-28 14:40:17,14.98337832,0.00037,69.9986,245.5172,275.6249,84.4488,0.00011173,1.241e-05,0.0,0 STARLINK-5523,1 56470U 23064Y   24180.61131867  .00001241  00000-0  11173-3 0  9999,2 56470  69.9986 245.5172 0003700 275.6249  84.4488 14.98337832 63005,6950.169,96.106,574.605,569.462,0.0
56470.0,STARLINK-5523,PAYLOAD,2024-06-29 13:06:11,14.98330885,0.0003229,69.9996,243.163,269.3265,90.7524,-2.5557e-05,-3.98e-06,0.0,0 STARLINK-5523,1 56470U 23064Y   24181.54596273 -.00000398  00000-0 -25557-4 0  9994,2 56470  69.9996 243.1630 0003229 269.3265  90.7524 14.98330885 63500,6950.19,96.107,574.299,569.811,0.0
56470.0,STARLINK-5523,PAYLOAD,2024-06-29 21:06:51,14.9832621,0.0002992,70.0005,242.3217,268.7424,91.3392,-0.00013585,-1.713e-05,0.0,0 STARLINK-5523,1 56470U 23064Y   24181.87976419 -.00001713  00000-0 -13585-3 0  9993,2 56470  70.0005 242.3217 0002992 268.7424  91.3392 14.98326210 63194,6950.205,96.107,574.149,569.99,0.0
56470.0,STARLINK-5523,PAYLOAD,2024-06-30 05:07:32,14.98316219,0.0002928,70.0003,241.4804,262.6953,97.3873,0.00033356,3.888e-05,0.0,0 STARLINK-5523,1 56470U 23064Y   24182.21357070  .00003888  00000-0  33356-3 0  9999,2 56470  70.0003 241.4804 0002928 262.6953  97.3873 14.98316219 63607,6950.236,96.108,574.136,570.065,0.0
56470.0,STARLINK-5523,PAYLOAD,2024-06-30 09:55:56,14.9832694,0.0003032,70.0002,240.9754,264.7819,95.2994,-0.00010572,-1.354e-05,0.0,0 STARLINK-5523,1 56470U 23064Y   24182.41384605 -.00001354  00000-0 -10572-3 0  9998,2 56470  70.0002 240.9754 0003032 264.7819  95.2994 14.98326940 63631,6950.202,96.107,574.175,569.96,0.0
56470.0,STARLINK-5523,PAYLOAD,2024-06-30 13:08:12,14.98319588,0.0002923,70.0003,240.6387,263.6533,96.4293,0.00023894,2.758e-05,0.0,0 STARLINK-5523,1 56470U 23064Y   24182.54737157  .00002758  00000-0  23894-3 0  9994,2 56470  70.0003 240.6387 0002923 263.6533  96.4293 14.98319588 63297,6950.225,96.108,574.122,570.059,0.0
56470.0,STARLINK-5523,PAYLOAD,2024-06-30 21:08:53,14.98325079,0.0002878,70.0003,239.797,268.7294,91.3535,0.00021345,2.454e-05,0.0,0 STARLINK-5523,1 56470U 23064Y   24182.88117066  .00002454  00000-0  21345-3 0  9994,2 56470  70.0003 239.7970 0002878 268.7294  91.3535 14.98325079 63344,6950.208,96.107,574.073,570.073,0.0
56470.0,STARLINK-5523,PAYLOAD,2024-07-01 13:10:13,14.98332666,0.0002951,69.9999,238.1136,269.0119,91.0702,0.00026618,3.085e-05,0.0,0 STARLINK-5523,1 56470U 23064Y   24183.54876879  .00003085  00000-0  26618-3 0  9991,2 56470  69.9999 238.1136 0002951 269.0119  91.0702 14.98332666 63808,6950.185,96.107,574.101,569.999,0.0
56470.0,STARLINK-5523,PAYLOAD,2024-07-01 21:10:54,14.98331438,0.0003001,69.9997,237.2718,268.7323,91.3492,0.00015329,1.737e-05,0.0,0 STARLINK-5523,1 56470U 23064Y   24183.88256958  .00001737  00000-0  15329-3 0  9997,2 56470  69.9997 237.2718 0003001 268.7323  91.3492 14.98331438 63492,6950.188,96.107,574.139,569.968,0.0
56470.0,STARLINK-5523,PAYLOAD,2024-07-02 13:12:14,14.98332241,0.0003098,69.9997,235.5879,269.4828,90.5976,0.00021478,2.471e-05,0.0,0 STARLINK-5523,1 56470U 23064Y   24184.55016977  .00002471  00000-0  21478-3 0  9995,2 56470  69.9997 235.5879 0003098 269.4828  90.5976 14.98332241 63957,6950.186,96.107,574.204,569.898,0.0
56470.0,STARLINK-5523,PAYLOAD,2024-07-03 13:14:15,14.98332898,0.0003122,69.9985,233.0633,269.3113,90.7688,5.8609e-05,6.06e-06,0.0,0 STARLINK-5523,1 56470U 23064Y   24185.55156880  .00000606  00000-0  58609-4 0  9999,2 56470  69.9985 233.0633 0003122 269.3113  90.7688 14.98332898 64107,6950.184,96.107,574.219,569.879,0.0
56470.0,STARLINK-5523,PAYLOAD,2024-07-04 13:16:16,14.98333851,0.0003176,69.9985,230.5387,268.8445,91.235,8.5162e-05,9.23e-06,0.0,0 STARLINK-5523,1 56470U 23064Y   24186.55296574  .00000923  00000-0  85162-4 0  9991,2 56470  69.9985 230.5387 0003176 268.8445  91.2350 14.98333851 64254,6950.181,96.107,574.253,569.839,0.0
